0 COSMOS 839 DEB
1 18272U 76067BL  13295.85960773  .00000480  00000-0  17444-2 0  8657
2 18272 065.8539 012.0318 0698729 251.3833 222.4482 12.39057368191637
